STARLINK-30176          
1 57477U 23107W   26068.12010608  .00030594  00000+0  11458-2 0  9994
2 57477  43.0011 338.9988 0001737 274.2479  85.8174 15.26730149145069
FLOCK 4G-25             
1 62646U 25009AP  26068.74572546  .00010373  00000+0  38902-3 0  9990
2 62646  97.4049 151.4141 0000828 316.3151  43.8023 15.27424196 63734
